[{"OBJECT_NAME":"STARLINK-11596 [DTC]","OBJECT_ID":"2025-124E","EPOCH":"2026-01-01T13:21:43.019424","MEAN_MOTION":15.70968906,"ECCENTRICITY":0.00019823,"INCLINATION":42.9998,"RA_OF_ASC_NODE":74.0919,"ARG_OF_PERICENTER":346.7129,"MEAN_ANOMALY":13.3686,"EPHEMERIS_TYPE":0,"CLASSIFICATION_TYPE":"U","NORAD_CAT_ID":64321,"ELEMENT_SET_NO":999,"REV_AT_EPOCH":3227,"BSTAR":0.0030423801,"MEAN_MOTION_DOT":0.00412144,"MEAN_MOTION_DDOT":0},{"OBJECT_NAME":"STARLINK-11747 [DTC]","OBJECT_ID":"2025-124F","EPOCH":"2026-01-01T13:06:25.853184","MEAN_MOTION":15.70964731,"ECCENTRICITY":0.00017433,"INCLINATION":43.0001,"RA_OF_ASC_NODE":74.0061,"ARG_OF_PERICENTER":6.5773,"MEAN_ANOMALY":353.5117,"EPHEMERIS_TYPE":0,"CLASSIFICATION_TYPE":"U","NORAD_CAT_ID":64322,"ELEMENT_SET_NO":999,"REV_AT_EPOCH":3227,"BSTAR":0.0033465421,"MEAN_MOTION_DOT":0.0045574,"MEAN_MOTION_DDOT":0},{"OBJECT_NAME":"STARLINK-11728 [DTC]","OBJECT_ID":"2025-124G","EPOCH":"2026-01-01T06:14:18.251808","MEAN_MOTION":15.70886339,"ECCENTRICITY":0.00015816,"INCLINATION":43.0008,"RA_OF_ASC_NODE":75.2814,"ARG_OF_PERICENTER":262.1852,"MEAN_ANOMALY":97.8837,"EPHEMERIS_TYPE":0,"CLASSIFICATION_TYPE":"U","NORAD_CAT_ID":64323,"ELEMENT_SET_NO":999,"REV_AT_EPOCH":3223,"BSTAR":0.0021776197,"MEAN_MOTION_DOT":0.00289485,"MEAN_MOTION_DDOT":0},{"OBJECT_NAME":"STARLINK-11696 [DTC]","OBJECT_ID":"2025-124H","EPOCH":"2026-01-01T04:58:02.270208","MEAN_MOTION":15.70893884,"ECCENTRICITY":0.00011473,"INCLINATION":43.0006,"RA_OF_ASC_NODE":75.7522,"ARG_OF_PERICENTER":257.3749,"MEAN_ANOMALY":102.6991,"EPHEMERIS_TYPE":0,"CLASSIFICATION_TYPE":"U","NORAD_CAT_ID":64324,"ELEMENT_SET_NO":999,"REV_AT_EPOCH":3222,"BSTAR":0.0021839614,"MEAN_MOTION_DOT":0.00290459,"MEAN_MOTION_DDOT":0},{"OBJECT_NAME":"STARLINK-11698 [DTC]","OBJECT_ID":"2025-124J","EPOCH":"2026-01-01T14:16:20.920512","MEAN_MOTION":15.70906868,"ECCENTRICITY":0.00013674,"INCLINATION":43.0003,"RA_OF_ASC_NODE":73.5014,"ARG_OF_PERICENTER":293.7654,"MEAN_ANOMALY":66.307,"EPHEMERIS_TYPE":0,"CLASSIFICATION_TYPE":"U","NORAD_CAT_ID":64325,"ELEMENT_SET_NO":999,"REV_AT_EPOCH":3228,"BSTAR":0.0017053901,"MEAN_MOTION_DOT":0.00225034,"MEAN_MOTION_DDOT":0},{"OBJECT_NAME":"STARLINK-11678 [DTC]","OBJECT_ID":"2025-124K","EPOCH":"2026-01-01T14:45:37.264896","MEAN_MOTION":15.70876906,"ECCENTRICITY":0.00011424,"INCLINATION":43.0001,"RA_OF_ASC_NODE":73.6622,"ARG_OF_PERICENTER":246.374,"MEAN_ANOMALY":113.7008,"EPHEMERIS_TYPE":0,"CLASSIFICATION_TYPE":"U","NORAD_CAT_ID":64326,"ELEMENT_SET_NO":999,"REV_AT_EPOCH":3228,"BSTAR":0.0010472148,"MEAN_MOTION_DOT":0.00136359,"MEAN_MOTION_DDOT":0},{"OBJECT_NAME":"STARLINK-11674 [DTC]","OBJECT_ID":"2025-124L","EPOCH":"2026-01-01T13:59:44.824416","MEAN_MOTION":15.70860288,"ECCENTRICITY":0.00013465,"INCLINATION":43.0001,"RA_OF_ASC_NODE":73.4057,"ARG_OF_PERICENTER":276.9317,"MEAN_ANOMALY":83.1397,"EPHEMERIS_TYPE":0,"CLASSIFICATION_TYPE":"U","NORAD_CAT_ID":64327,"ELEMENT_SET_NO":999,"REV_AT_EPOCH":3228,"BSTAR":0.00077794914,"MEAN_MOTION_DOT":0.00100675,"MEAN_MOTION_DDOT":0},{"OBJECT_NAME":"STARLINK-11707 [DTC]","OBJECT_ID":"2025-124M","EPOCH":"2026-01-01T14:22:40.821312","MEAN_MOTION":15.70880538,"ECCENTRICITY":0.00012867,"INCLINATION":43.0002,"RA_OF_ASC_NODE":73.5355,"ARG_OF_PERICENTER":261.3572,"MEAN_ANOMALY":98.715,"EPHEMERIS_TYPE":0,"CLASSIFICATION_TYPE":"U","NORAD_CAT_ID":64328,"ELEMENT_SET_NO":999,"REV_AT_EPOCH":3228,"BSTAR":0.0011235091,"MEAN_MOTION_DOT":0.0014653,"MEAN_MOTION_DDOT":0},{"OBJECT_NAME":"STARLINK-11734 [DTC]","OBJECT_ID":"2025-124N","EPOCH":"2026-01-01T13:44:28.141152","MEAN_MOTION":15.70915717,"ECCENTRICITY":0.00016226,"INCLINATION":43,"RA_OF_ASC_NODE":73.3202,"ARG_OF_PERICENTER":4.9329,"MEAN_ANOMALY":355.1555,"EPHEMERIS_TYPE":0,"CLASSIFICATION_TYPE":"U","NORAD_CAT_ID":64329,"ELEMENT_SET_NO":999,"REV_AT_EPOCH":3228,"BSTAR":0.0020781161,"MEAN_MOTION_DOT":0.00276128,"MEAN_MOTION_DDOT":0},{"OBJECT_NAME":"STARLINK-34252","OBJECT_ID":"2025-124P","EPOCH":"2026-01-01T10:35:29.784480","MEAN_MOTION":15.27605946,"ECCENTRICITY":0.00021066,"INCLINATION":42.9995,"RA_OF_ASC_NODE":141.6659,"ARG_OF_PERICENTER":168.5073,"MEAN_ANOMALY":191.5827,"EPHEMERIS_TYPE":0,"CLASSIFICATION_TYPE":"U","NORAD_CAT_ID":64330,"ELEMENT_SET_NO":999,"REV_AT_EPOCH":3149,"BSTAR":0.0012856136,"MEAN_MOTION_DOT":0.00035314,"MEAN_MOTION_DDOT":0},{"OBJECT_NAME":"STARLINK-34050","OBJECT_ID":"2025-124Q","EPOCH":"2026-01-01T10:20:41.387712","MEAN_MOTION":15.27601159,"ECCENTRICITY":0.0003549,"INCLINATION":43.0025,"RA_OF_ASC_NODE":141.5932,"ARG_OF_PERICENTER":288.3321,"MEAN_ANOMALY":71.7144,"EPHEMERIS_TYPE":0,"CLASSIFICATION_TYPE":"U","NORAD_CAT_ID":64331,"ELEMENT_SET_NO":999,"REV_AT_EPOCH":3255,"BSTAR":0.0016075029,"MEAN_MOTION_DOT":0.00044273,"MEAN_MOTION_DDOT":0},{"OBJECT_NAME":"STARLINK-33782","OBJECT_ID":"2025-124R","EPOCH":"2026-01-01T10:04:02.176896","MEAN_MOTION":15.27608903,"ECCENTRICITY":0.00015347,"INCLINATION":43.0008,"RA_OF_ASC_NODE":141.4971,"ARG_OF_PERICENTER":170.623,"MEAN_ANOMALY":189.4651,"EPHEMERIS_TYPE":0,"CLASSIFICATION_TYPE":"U","NORAD_CAT_ID":64332,"ELEMENT_SET_NO":999,"REV_AT_EPOCH":3149,"BSTAR":0.0013651355,"MEAN_MOTION_DOT":0.00037528,"MEAN_MOTION_DDOT":0},{"OBJECT_NAME":"STARLINK-34207","OBJECT_ID":"2025-124S","EPOCH":"2026-01-01T10:29:56.524992","MEAN_MOTION":15.27606962,"ECCENTRICITY":0.00020524,"INCLINATION":43.0022,"RA_OF_ASC_NODE":141.6396,"ARG_OF_PERICENTER":274.0199,"MEAN_ANOMALY":86.0418,"EPHEMERIS_TYPE":0,"CLASSIFICATION_TYPE":"U","NORAD_CAT_ID":64333,"ELEMENT_SET_NO":999,"REV_AT_EPOCH":3149,"BSTAR":0.0015356798,"MEAN_MOTION_DOT":0.00042275,"MEAN_MOTION_DDOT":0},{"OBJECT_NAME":"STARLINK-34260","OBJECT_ID":"2025-124T","EPOCH":"2026-01-01T09:06:53.391168","MEAN_MOTION":15.27603821,"ECCENTRICITY":0.0002001,"INCLINATION":42.9979,"RA_OF_ASC_NODE":142.0583,"ARG_OF_PERICENTER":257.3361,"MEAN_ANOMALY":102.7267,"EPHEMERIS_TYPE":0,"CLASSIFICATION_TYPE":"U","NORAD_CAT_ID":64334,"ELEMENT_SET_NO":999,"REV_AT_EPOCH":3148,"BSTAR":0.0014541304,"MEAN_MOTION_DOT":0.0004,"MEAN_MOTION_DDOT":0},{"OBJECT_NAME":"STARLINK-33855","OBJECT_ID":"2025-124U","EPOCH":"2026-01-01T09:58:29.007264","MEAN_MOTION":15.27593807,"ECCENTRICITY":0.00041886,"INCLINATION":43.0023,"RA_OF_ASC_NODE":141.4644,"ARG_OF_PERICENTER":287.0877,"MEAN_ANOMALY":72.9515,"EPHEMERIS_TYPE":0,"CLASSIFICATION_TYPE":"U","NORAD_CAT_ID":64335,"ELEMENT_SET_NO":999,"REV_AT_EPOCH":3149,"BSTAR":0.001123581,"MEAN_MOTION_DOT":0.00030804,"MEAN_MOTION_DDOT":0},{"OBJECT_NAME":"STARLINK-34223","OBJECT_ID":"2025-124V","EPOCH":"2026-01-01T09:42:31.805856","MEAN_MOTION":15.27604748,"ECCENTRICITY":0.00025502,"INCLINATION":42.998,"RA_OF_ASC_NODE":137.9205,"ARG_OF_PERICENTER":286.6451,"MEAN_ANOMALY":73.4121,"EPHEMERIS_TYPE":0,"CLASSIFICATION_TYPE":"U","NORAD_CAT_ID":64336,"ELEMENT_SET_NO":999,"REV_AT_EPOCH":3153,"BSTAR":0.0017948869,"MEAN_MOTION_DOT":0.00049501,"MEAN_MOTION_DDOT":0}]
