STARLINK-11596 [DTC]    
1 64321U 25124E   26001.55674791  .00412144  00000+0  30424-2 0  9993
2 64321  42.9998  74.0919 0001982 346.7129  13.3686 15.70968906 32273
STARLINK-11747 [DTC]    
1 64322U 25124F   26001.54613256  .00455740  00000+0  33465-2 0  9999
2 64322  43.0001  74.0061 0001743   6.5773 353.5117 15.70964731 32270
STARLINK-11728 [DTC]    
1 64323U 25124G   26001.25993347  .00289485  00000+0  21776-2 0  9993
2 64323  43.0008  75.2814 0001581 262.1852  97.8837 15.70886339 32235
STARLINK-11696 [DTC]    
1 64324U 25124H   26001.20697072  .00290459  00000+0  21840-2 0  9990
2 64324  43.0006  75.7522 0001147 257.3749 102.6991 15.70893884 32222
STARLINK-11698 [DTC]    
1 64325U 25124J   26001.59468658  .00225034  00000+0  17054-2 0  9998
2 64325  43.0003  73.5014 0001367 293.7654  66.3070 15.70906868 32282
STARLINK-11678 [DTC]    
1 64326U 25124K   26001.61501464  .00136359  00000+0  10472-2 0  9993
2 64326  43.0001  73.6622 0001142 246.3740 113.7008 15.70876906 32285
STARLINK-11674 [DTC]    
1 64327U 25124L   26001.58315769  .00100675  00000+0  77795-3 0  9995
2 64327  43.0001  73.4057 0001346 276.9317  83.1397 15.70860288 32288
STARLINK-11707 [DTC]    
1 64328U 25124M   26001.59908358  .00146530  00000+0  11235-2 0  9995
2 64328  43.0002  73.5355 0001286 261.3572  98.7150 15.70880538 32285
STARLINK-11734 [DTC]    
1 64329U 25124N   26001.57254793  .00276128  00000+0  20781-2 0  9994
2 64329  43.0000  73.3202 0001622   4.9329 355.1555 15.70915717 32285
STARLINK-34252          
1 64330U 25124P   26001.44131695  .00035314  00000+0  12856-2 0  9991
2 64330  42.9995 141.6659 0002106 168.5073 191.5827 15.27605946 31492
STARLINK-34050          
1 64331U 25124Q   26001.43103458  .00044273  00000+0  16075-2 0  9998
2 64331  43.0025 141.5932 0003549 288.3321  71.7144 15.27601159 32552
STARLINK-33782          
1 64332U 25124R   26001.41946964  .00037528  00000+0  13651-2 0  9996
2 64332  43.0008 141.4971 0001534 170.6230 189.4651 15.27608903 31496
STARLINK-34207          
1 64333U 25124S   26001.43745978  .00042275  00000+0  15357-2 0  9991
2 64333  43.0022 141.6396 0002052 274.0199  86.0418 15.27606962 31491
STARLINK-34260          
1 64334U 25124T   26001.37978462  .00040000  00000+0  14541-2 0  9999
2 64334  42.9979 142.0583 0002001 257.3361 102.7267 15.27603821 31481
STARLINK-33855          
1 64335U 25124U   26001.41561351  .00030804  00000+0  11236-2 0  9999
2 64335  43.0023 141.4644 0004188 287.0877  72.9515 15.27593807 31492
STARLINK-34223          
1 64336U 25124V   26001.40453479  .00049501  00000+0  17949-2 0  9991
2 64336  42.9980 137.9205 0002550 286.6451  73.4121 15.27604748 31531
